LYNK TOWER 6            
1 59123U 24043AB  26068.89488777  .00011440  00000+0  40142-3 0  9996
2 59123  97.5426 204.1954 0009749 232.0253 128.0107 15.29548678111845
STARLINK-34555          
1 64665U 25139B   26068.43699988  .00014438  00000+0  49860-3 0  9994
2 64665  53.1580 128.3422 0001190  84.8527 275.2610 15.30202868 40145
